UNKNOWN                 
1 87159U          25310.07296941  .00001307  00000+0  15248-2 0  9991
2 87159  90.3486  68.0777 0103684   6.5928 353.6568 13.65936087551688
UNKNOWN                 
1 87164U          25330.57897760  .00004895  00000+0  10159-2 0  9991
2 87164  65.2050  14.6355 0097319  62.1997 298.8925 14.58166848633414
UNKNOWN                 
1 87204U          25330.05018808  .00002926  00000+0  11548-2 0  9993
2 87204  98.5367 191.2045 0046991  13.7663 346.4788 14.29209439623057
UNKNOWN                 
1 87211U          25315.76916074  .00007011  00000+0  19417-2 0  9997
2 87211  99.0868 313.3752 0052533 251.4575 290.9079 14.46143017703290
UNKNOWN                 
1 87237U          25328.65360987  .00000371  00000+0  31375-3 0  9993
2 87237  99.2589  24.1732 0102598 333.5593 178.3003 13.91729236609242
UNKNOWN                 
1 87239U          25330.33888108  .00011508  00000+0  28658-2 0  9996
2 87239  82.8710  96.7899 0018619  97.4981 262.8333 14.51509030625499
UNKNOWN                 
1 87245U          25327.01817221  .00008019  00000+0  16470-2 0  9994
2 87245  65.6378 100.5525 0433476 131.0621 340.2544 14.15504194611411
UNKNOWN                 
1 87280U          25330.58370455  .00000419  00000+0  76550-3 0  9994
2 87280  64.6157 275.3311 0130801 263.9103  94.7019 13.48533857531674
UNKNOWN                 
1 87293U          25330.58572817  .00007938  00000+0  15909-2 0  9997
2 87293  65.8946 188.1679 0425449   8.4942 352.3051 14.17799391611709
