CCSDS_OMM_VERS = 2.0
CREATION_DATE  = 
ORIGINATOR     = 

OBJECT_NAME    = UNKNOWN
OBJECT_ID      = 
CENTER_NAME    = EARTH
REF_FRAME      = TEME
TIME_SYSTEM    = UTC
MEAN_ELEMENT_THEORY = SGP/SGP4

EPOCH          = 2025-11-06T01:45:04.557024
MEAN_MOTION    = 13.65936087
ECCENTRICITY   = .0103684
INCLINATION    = 90.3486
RA_OF_ASC_NODE = 68.0777
ARG_OF_PERICENTER = 6.5928
MEAN_ANOMALY   = 353.6568

EPHEMERIS_TYPE = 0
CLASSIFICATION_TYPE = U
NORAD_CAT_ID   = 87159
ELEMENT_SET_NO = 999
REV_AT_EPOCH   = 55168
BSTAR          = .15248E-2
MEAN_MOTION_DOT = .1307E-4
MEAN_MOTION_DDOT = 0

CCSDS_OMM_VERS = 2.0
CREATION_DATE  = 
ORIGINATOR     = 

OBJECT_NAME    = UNKNOWN
OBJECT_ID      = 
CENTER_NAME    = EARTH
REF_FRAME      = TEME
TIME_SYSTEM    = UTC
MEAN_ELEMENT_THEORY = SGP/SGP4

EPOCH          = 2025-11-26T13:53:43.664640
MEAN_MOTION    = 14.58166848
ECCENTRICITY   = .0097319
INCLINATION    = 65.2050
RA_OF_ASC_NODE = 14.6355
ARG_OF_PERICENTER = 62.1997
MEAN_ANOMALY   = 298.8925

EPHEMERIS_TYPE = 0
CLASSIFICATION_TYPE = U
NORAD_CAT_ID   = 87164
ELEMENT_SET_NO = 999
REV_AT_EPOCH   = 63341
BSTAR          = .10159E-2
MEAN_MOTION_DOT = .4895E-4
MEAN_MOTION_DDOT = 0

CCSDS_OMM_VERS = 2.0
CREATION_DATE  = 
ORIGINATOR     = 

OBJECT_NAME    = UNKNOWN
OBJECT_ID      = 
CENTER_NAME    = EARTH
REF_FRAME      = TEME
TIME_SYSTEM    = UTC
MEAN_ELEMENT_THEORY = SGP/SGP4

EPOCH          = 2025-11-26T01:12:16.250112
MEAN_MOTION    = 14.29209439
ECCENTRICITY   = .0046991
INCLINATION    = 98.5367
RA_OF_ASC_NODE = 191.2045
ARG_OF_PERICENTER = 13.7663
MEAN_ANOMALY   = 346.4788

EPHEMERIS_TYPE = 0
CLASSIFICATION_TYPE = U
NORAD_CAT_ID   = 87204
ELEMENT_SET_NO = 999
REV_AT_EPOCH   = 62305
BSTAR          = .11548E-2
MEAN_MOTION_DOT = .2926E-4
MEAN_MOTION_DDOT = 0

CCSDS_OMM_VERS = 2.0
CREATION_DATE  = 
ORIGINATOR     = 

OBJECT_NAME    = UNKNOWN
OBJECT_ID      = 
CENTER_NAME    = EARTH
REF_FRAME      = TEME
TIME_SYSTEM    = UTC
MEAN_ELEMENT_THEORY = SGP/SGP4

EPOCH          = 2025-11-11T18:27:35.487936
MEAN_MOTION    = 14.46143017
ECCENTRICITY   = .0052533
INCLINATION    = 99.0868
RA_OF_ASC_NODE = 313.3752
ARG_OF_PERICENTER = 251.4575
MEAN_ANOMALY   = 290.9079

EPHEMERIS_TYPE = 0
CLASSIFICATION_TYPE = U
NORAD_CAT_ID   = 87211
ELEMENT_SET_NO = 999
REV_AT_EPOCH   = 70329
BSTAR          = .19417E-2
MEAN_MOTION_DOT = .7011E-4
MEAN_MOTION_DDOT = 0

CCSDS_OMM_VERS = 2.0
CREATION_DATE  = 
ORIGINATOR     = 

OBJECT_NAME    = UNKNOWN
OBJECT_ID      = 
CENTER_NAME    = EARTH
REF_FRAME      = TEME
TIME_SYSTEM    = UTC
MEAN_ELEMENT_THEORY = SGP/SGP4

EPOCH          = 2025-11-24T15:41:11.892768
MEAN_MOTION    = 13.91729236
ECCENTRICITY   = .0102598
INCLINATION    = 99.2589
RA_OF_ASC_NODE = 24.1732
ARG_OF_PERICENTER = 333.5593
MEAN_ANOMALY   = 178.3003

EPHEMERIS_TYPE = 0
CLASSIFICATION_TYPE = U
NORAD_CAT_ID   = 87237
ELEMENT_SET_NO = 999
REV_AT_EPOCH   = 60924
BSTAR          = .31375E-3
MEAN_MOTION_DOT = .371E-5
MEAN_MOTION_DDOT = 0

CCSDS_OMM_VERS = 2.0
CREATION_DATE  = 
ORIGINATOR     = 

OBJECT_NAME    = UNKNOWN
OBJECT_ID      = 
CENTER_NAME    = EARTH
REF_FRAME      = TEME
TIME_SYSTEM    = UTC
MEAN_ELEMENT_THEORY = SGP/SGP4

EPOCH          = 2025-11-26T08:07:59.325312
MEAN_MOTION    = 14.51509030
ECCENTRICITY   = .0018619
INCLINATION    = 82.8710
RA_OF_ASC_NODE = 96.7899
ARG_OF_PERICENTER = 97.4981
MEAN_ANOMALY   = 262.8333

EPHEMERIS_TYPE = 0
CLASSIFICATION_TYPE = U
NORAD_CAT_ID   = 87239
ELEMENT_SET_NO = 999
REV_AT_EPOCH   = 62549
BSTAR          = .28658E-2
MEAN_MOTION_DOT = .11508E-3
MEAN_MOTION_DDOT = 0

CCSDS_OMM_VERS = 2.0
CREATION_DATE  = 
ORIGINATOR     = 

OBJECT_NAME    = UNKNOWN
OBJECT_ID      = 
CENTER_NAME    = EARTH
REF_FRAME      = TEME
TIME_SYSTEM    = UTC
MEAN_ELEMENT_THEORY = SGP/SGP4

EPOCH          = 2025-11-23T00:26:10.078944
MEAN_MOTION    = 14.15504194
ECCENTRICITY   = .0433476
INCLINATION    = 65.6378
RA_OF_ASC_NODE = 100.5525
ARG_OF_PERICENTER = 131.0621
MEAN_ANOMALY   = 340.2544

EPHEMERIS_TYPE = 0
CLASSIFICATION_TYPE = U
NORAD_CAT_ID   = 87245
ELEMENT_SET_NO = 999
REV_AT_EPOCH   = 61141
BSTAR          = .1647E-2
MEAN_MOTION_DOT = .8019E-4
MEAN_MOTION_DDOT = 0

CCSDS_OMM_VERS = 2.0
CREATION_DATE  = 
ORIGINATOR     = 

OBJECT_NAME    = UNKNOWN
OBJECT_ID      = 
CENTER_NAME    = EARTH
REF_FRAME      = TEME
TIME_SYSTEM    = UTC
MEAN_ELEMENT_THEORY = SGP/SGP4

EPOCH          = 2025-11-26T14:00:32.073120
MEAN_MOTION    = 13.48533857
ECCENTRICITY   = .0130801
INCLINATION    = 64.6157
RA_OF_ASC_NODE = 275.3311
ARG_OF_PERICENTER = 263.9103
MEAN_ANOMALY   = 94.7019

EPHEMERIS_TYPE = 0
CLASSIFICATION_TYPE = U
NORAD_CAT_ID   = 87280
ELEMENT_SET_NO = 999
REV_AT_EPOCH   = 53167
BSTAR          = .7655E-3
MEAN_MOTION_DOT = .419E-5
MEAN_MOTION_DDOT = 0

CCSDS_OMM_VERS = 2.0
CREATION_DATE  = 
ORIGINATOR     = 

OBJECT_NAME    = UNKNOWN
OBJECT_ID      = 
CENTER_NAME    = EARTH
REF_FRAME      = TEME
TIME_SYSTEM    = UTC
MEAN_ELEMENT_THEORY = SGP/SGP4

EPOCH          = 2025-11-26T14:03:26.913888
MEAN_MOTION    = 14.17799391
ECCENTRICITY   = .0425449
INCLINATION    = 65.8946
RA_OF_ASC_NODE = 188.1679
ARG_OF_PERICENTER = 8.4942
MEAN_ANOMALY   = 352.3051

EPHEMERIS_TYPE = 0
CLASSIFICATION_TYPE = U
NORAD_CAT_ID   = 87293
ELEMENT_SET_NO = 999
REV_AT_EPOCH   = 61170
BSTAR          = .15909E-2
MEAN_MOTION_DOT = .7938E-4
MEAN_MOTION_DDOT = 0

